GLOBALSTAR M075         
1 37192U 10054E   25148.51542806 -.00000065  00000+0  21857-3 0  9990
2 37192  51.9945 241.4333 0000491 127.8539 244.8739 12.62265266673366
GLOBALSTAR M073         
1 37193U 10054F   25148.78789964 -.00000107  00000+0 -16794-4 0  9991
2 37193  52.0033 154.4076 0000149 326.4373 204.4305 12.62271928675384
GLOBALSTAR M083         
1 37739U 11033A   25148.93689213 -.00000128  00000+0 -13486-3 0  9995
2 37739  51.9848 102.7099 0000287  64.3139   3.7719 12.62263505644426
GLOBALSTAR M088         
1 37740U 11033B   25148.89826523 -.00000082  00000+0  12169-3 0  9994
2 37740  52.0068   8.3533 0000898  81.7588 291.4427 12.62245285639967
GLOBALSTAR M091         
1 37741U 11033C   25148.75297995 -.00000092  00000+0  63944-4 0  9994
2 37741  52.0011 332.2997 0000938 114.9669 257.5787 12.62268133640739
GLOBALSTAR M085         
1 37742U 11033D   25148.66066418 -.00000083  00000+0  11542-3 0  9995
2 37742  51.9872 283.6355 0000825 132.7016 240.5235 12.62268674641235
GLOBALSTAR M081         
1 37743U 11033E   25148.68729838 -.00000090  00000+0  75246-4 0  9990
2 37743  51.9965 286.3310 0000639 135.0672 238.2431 12.62264156641386
GLOBALSTAR M089         
1 37744U 11033F   25148.67914355 -.00000063  00000+0  22896-3 0  9992
2 37744  51.9925 240.5858 0000331 102.4435  55.2082 12.62264194642221
